NORAD_CAT_ID,OBJECT_NAME,OBJECT_TYPE,EPOCH,MEAN_MOTION,ECCENTRICITY,INCLINATION,RA_OF_ASC_NODE,ARG_OF_PERICENTER,MEAN_ANOMALY,BSTAR,MEAN_MOTION_DOT,MEAN_MOTION_DDOT,TLE_LINE0,TLE_LINE1,TLE_LINE2,SEMIMAJOR_AXIS,PERIOD,APOGEE,PERIGEE,DECAYED
53034.0,STARLINK-4151,PAYLOAD,2024-07-22 11:11:25,15.08845895,0.0001367,53.2143,226.2301,103.9347,256.1797,0.00014937,2.09e-05,0.0,0 STARLINK-4151,1 53034U 22076BA  24204.46626632  .00002090  00000-0  14937-3 0  9997,2 53034  53.2143 226.2301 0001367 103.9347 256.1797 15.08845895113729,6917.862,95.437,540.673,538.782,0.0
53034.0,STARLINK-4151,PAYLOAD,2024-07-23 07:51:26,15.08844257,0.00015,53.2145,222.3664,89.3136,270.8028,0.00024366,3.592e-05,0.0,0 STARLINK-4151,1 53034U 22076BA  24205.32738856  .00003592  00000-0  24366-3 0  9990,2 53034  53.2145 222.3664 0001500  89.3136 270.8028 15.08844257113857,6917.867,95.437,540.77,538.695,0.0
53034.0,STARLINK-4151,PAYLOAD,2024-07-24 04:31:27,15.08838858,0.0001448,53.2142,218.4978,88.5318,271.584,-8.1465e-06,-4.18e-06,0.0,0 STARLINK-4151,1 53034U 22076BA  24206.18850916 -.00000418  00000-0 -81465-5 0  9998,2 53034  53.2142 218.4978 0001448  88.5318 271.5840 15.08838858113986,6917.884,95.438,540.751,538.747,0.0
53034.0,STARLINK-4151,PAYLOAD,2024-07-24 07:42:13,15.08836579,0.0001363,53.2151,217.9032,88.0519,272.0629,-1.2777e-05,-4.91e-06,0.0,0 STARLINK-4151,1 53034U 22076BA  24206.32099332 -.00000491  00000-0 -12777-4 0  9991,2 53034  53.2151 217.9032 0001363  88.0519 272.0629 15.08836579113546,6917.891,95.438,540.699,538.813,0.0
53034.0,STARLINK-4151,PAYLOAD,2024-07-25 05:57:37,15.0883968,0.0001336,53.215,213.7392,87.0953,273.0192,3.9603e-05,3.42e-06,0.0,0 STARLINK-4151,1 53034U 22076BA  24207.24834986  .00000342  00000-0  39603-4 0  9995,2 53034  53.2150 213.7392 0001336  87.0953 273.0192 15.08839680113686,6917.881,95.438,540.671,538.822,0.0
53034.0,STARLINK-4151,PAYLOAD,2024-07-25 07:33:00,15.08840259,0.0001348,53.2151,213.4421,87.1567,272.9579,4.3441e-05,4.04e-06,0.0,0 STARLINK-4151,1 53034U 22076BA  24207.31458939  .00000404  00000-0  43441-4 0  9997,2 53034  53.2151 213.4421 0001348  87.1567 272.9579 15.08840259114156,6917.88,95.438,540.677,538.812,0.0
53034.0,STARLINK-4151,PAYLOAD,2024-07-26 10:34:34,15.08833216,0.0001468,53.2166,208.391,98.7203,261.3955,8.3376e-05,1.039e-05,0.0,0 STARLINK-4151,1 53034U 22076BA  24208.44067453  .00001039  00000-0  83376-4 0  9995,2 53034  53.2166 208.3910 0001468  98.7203 261.3955 15.08833216114320,6917.901,95.438,540.782,538.751,0.0
53034.0,STARLINK-4151,PAYLOAD,2024-07-26 16:56:06,15.08837002,0.0001486,53.2169,207.2026,95.695,264.4211,7.8176e-05,9.56e-06,0.0,0 STARLINK-4151,1 53034U 22076BA  24208.70563307  .00000956  00000-0  78176-4 0  9992,2 53034  53.2169 207.2026 0001486  95.6950 264.4211 15.08837002113903,6917.89,95.438,540.783,538.727,0.0
53034.0,STARLINK-4151,PAYLOAD,2024-07-27 05:39:11,15.08839219,0.0001515,53.2167,204.824,96.842,263.2745,8.1919e-05,1.016e-05,0.0,0 STARLINK-4151,1 53034U 22076BA  24209.23555226  .00001016  00000-0  81919-4 0  9999,2 53034  53.2167 204.8240 0001515  96.8420 263.2745 15.08839219113989,6917.883,95.438,540.796,538.7,0.0
53034.0,STARLINK-4151,PAYLOAD,2024-07-27 07:14:34,15.08839951,0.0001495,53.2168,204.5262,95.8395,264.2768,6.9721e-05,8.22e-06,0.0,0 STARLINK-4151,1 53034U 22076BA  24209.30179225  .00000822  00000-0  69721-4 0  9999,2 53034  53.2168 204.5262 0001495  95.8395 264.2768 15.08839951114450,6917.881,95.438,540.78,538.711,0.0
53034.0,STARLINK-4151,PAYLOAD,2024-07-27 23:08:26,15.08838458,0.0001552,53.2166,201.5508,88.0456,272.0714,8.561e-05,1.075e-05,0.0,0 STARLINK-4151,1 53034U 22076BA  24209.96419253  .00001075  00000-0  85610-4 0  9995,2 53034  53.2166 201.5508 0001552  88.0456 272.0714 15.08838458114093,6917.885,95.438,540.824,538.676,0.0
53034.0,STARLINK-4151,PAYLOAD,2024-07-28 22:59:13,15.08847556,0.000142,53.2154,197.0893,89.9001,270.2154,-5.4272e-05,-1.152e-05,0.0,0 STARLINK-4151,1 53034U 22076BA  24210.95779026 -.00001152  00000-0 -54272-4 0  9991,2 53034  53.2154 197.0893 0001420  89.9001 270.2154 15.08847556114240,6917.857,95.437,540.705,538.74,0.0
53034.0,STARLINK-4151,PAYLOAD,2024-07-29 05:20:45,15.08844425,0.0001405,53.2145,195.9002,87.4676,272.6476,4.465e-05,4.23e-06,0.0,0 STARLINK-4151,1 53034U 22076BA  24211.22275031  .00000423  00000-0  44650-4 0  9996,2 53034  53.2145 195.9002 0001405  87.4676 272.6476 15.08844425114743,6917.867,95.437,540.704,538.76,0.0
53034.0,STARLINK-4151,PAYLOAD,2024-07-29 16:28:27,15.08847842,0.0001329,53.2149,193.8189,88.278,271.8364,5.6142e-05,6.06e-06,0.0,0 STARLINK-4151,1 53034U 22076BA  24211.68642697  .00000606  00000-0  56142-4 0  9994,2 53034  53.2149 193.8189 0001329  88.2780 271.8364 15.08847842114350,6917.856,95.437,540.641,538.802,0.0
53034.0,STARLINK-4151,PAYLOAD,2024-07-30 05:11:32,15.08838822,0.0001448,53.216,191.4397,95.2395,264.8762,6.5248e-05,7.51e-06,0.0,0 STARLINK-4151,1 53034U 22076BA  24212.21635255  .00000751  00000-0  65248-4 0  9994,2 53034  53.2160 191.4397 0001448  95.2395 264.8762 15.08838822114891,6917.884,95.438,540.751,538.747,0.0
53034.0,STARLINK-4151,PAYLOAD,2024-07-31 05:02:19,15.08845925,0.0001441,53.2166,186.9783,98.2691,261.8464,6.7695e-05,7.9e-06,0.0,0 STARLINK-4151,1 53034U 22076BA  24213.20994665  .00000790  00000-0  67695-4 0  9998,2 53034  53.2166 186.9783 0001441  98.2691 261.8464 15.08845925114584,6917.862,95.437,540.724,538.73,0.0
53034.0,STARLINK-4151,PAYLOAD,2024-07-31 22:31:34,15.0883739,0.0001427,53.2164,183.7065,98.3746,261.7408,4.1461e-05,3.72e-06,0.0,0 STARLINK-4151,1 53034U 22076BA  24213.93859191  .00000372  00000-0  41461-4 0  9991,2 53034  53.2164 183.7065 0001427  98.3746 261.7408 15.08837390114692,6917.888,95.438,540.741,538.766,0.0
53034.0,STARLINK-4151,PAYLOAD,2024-08-01 04:53:07,15.08832909,0.0001414,53.2169,182.522,75.8649,284.25,1.898e-05,1.4e-07,0.0,0 STARLINK-4151,1 53034U 22076BA  24214.20355664  .00000014  00000-0  18980-4 0  9991,2 53034  53.2169 182.5220 0001414  75.8649 284.2500 15.08832909115195,6917.902,95.438,540.745,538.789,0.0
53034.0,STARLINK-4151,PAYLOAD,2024-08-01 14:25:25,15.08845053,0.0001377,53.2172,180.738,92.4953,267.6197,3.0106e-05,1.91e-06,0.0,0 STARLINK-4151,1 53034U 22076BA  24214.60098819  .00000191  00000-0  30106-4 0  9991,2 53034  53.2172 180.7380 0001377  92.4953 267.6197 15.08845053114793,6917.865,95.437,540.683,538.777,0.0
53034.0,STARLINK-4151,PAYLOAD,2024-08-01 22:22:21,15.088346,0.0001617,53.2181,179.2565,103.4884,256.6289,-2.1892e-05,-6.36e-06,0.0,0 STARLINK-4151,1 53034U 22076BA  24214.93219719 -.00000636  00000-0 -21892-4 0  9999,2 53034  53.2181 179.2565 0001617 103.4884 256.6289 15.08834600114846,6917.897,95.438,540.881,538.643,0.0
53034.0,STARLINK-4151,PAYLOAD,2024-08-02 07:54:40,15.08836799,0.0001429,53.2169,177.4652,95.9253,264.1902,5.9668e-06,-1.93e-06,0.0,0 STARLINK-4151,1 53034U 22076BA  24215.32963612 -.00000193  00000-0  59668-5 0  9991,2 53034  53.2169 177.4652 0001429  95.9253 264.1902 15.08836799115360,6917.89,95.438,540.744,538.767,0.0
53034.0,STARLINK-4151,PAYLOAD,2024-08-02 14:16:12,15.08840464,0.0001423,53.2174,176.2758,95.8371,264.2783,5.7601e-05,6.29e-06,0.0,0 STARLINK-4151,1 53034U 22076BA  24215.59459276  .00000629  00000-0  57601-4 0  9993,2 53034  53.2174 176.2758 0001423  95.8371 264.2783 15.08840464114949,6917.879,95.438,540.728,538.76,0.0
53034.0,STARLINK-4151,PAYLOAD,2024-08-02 22:13:09,15.08827148,0.0001554,53.2175,174.7907,100.1076,260.0091,4.7105e-05,4.62e-06,0.0,0 STARLINK-4151,1 53034U 22076BA  24215.92580296  .00000462  00000-0  47105-4 0  9990,2 53034  53.2175 174.7907 0001554 100.1076 260.0091 15.08827148114991,6917.92,95.438,540.86,538.71,0.0
53034.0,STARLINK-4151,PAYLOAD,2024-08-03 14:06:59,15.08848668,0.0001405,53.2167,171.8163,90.6777,269.4377,0.00011801,1.591e-05,0.0,0 STARLINK-4151,1 53034U 22076BA  24216.58818896  .00001591  00000-0  11801-3 0  9990,2 53034  53.2167 171.8163 0001405  90.6777 269.4377 15.08848668115092,6917.854,95.437,540.691,538.747,0.0
53034.0,STARLINK-4151,PAYLOAD,2024-08-04 04:25:29,15.08832581,0.000142,53.2166,169.1385,86.8563,273.2591,4.9545e-05,5.01e-06,0.0,0 STARLINK-4151,1 53034U 22076BA  24217.18436402  .00000501  00000-0  49545-4 0  9993,2 53034  53.2166 169.1385 0001420  86.8563 273.2591 15.08832581115643,6917.903,95.438,540.75,538.786,0.0
53034.0,STARLINK-4151,PAYLOAD,2024-08-04 13:57:46,15.08847842,0.0001446,53.217,167.355,89.6591,270.4567,0.00011354,1.52e-05,0.0,0 STARLINK-4151,1 53034U 22076BA  24217.58179275  .00001520  00000-0  11354-3 0  9997,2 53034  53.2170 167.3550 0001446  89.6591 270.4567 15.08847842115246,6917.856,95.437,540.722,538.721,0.0
53034.0,STARLINK-4151,PAYLOAD,2024-08-04 20:19:19,15.08846287,0.000202,53.2169,166.1686,91.4657,268.6566,0.00013779,1.906e-05,0.0,0 STARLINK-4151,1 53034U 22076BA  24217.84675486  .00001906  00000-0  13779-3 0  9992,2 53034  53.2169 166.1686 0002020  91.4657 268.6566 15.08846287115749,6917.861,95.437,541.124,538.329,0.0
53034.0,STARLINK-4151,PAYLOAD,2024-08-05 13:48:33,15.0885381,0.0001424,53.2164,162.8942,98.0063,262.1091,0.00012147,1.646e-05,0.0,0 STARLINK-4151,1 53034U 22076BA  24218.57538648  .00001646  00000-0  12147-3 0  9990,2 53034  53.2164 162.8942 0001424  98.0063 262.1091 15.08853810115396,6917.838,95.437,540.688,538.718,0.0
53034.0,STARLINK-4151,PAYLOAD,2024-08-06 02:31:42,15.08807936,0.0001543,53.2173,160.5115,110.4539,249.6619,-0.00013222,-2.39e-05,0.0,0 STARLINK-4151,1 53034U 22076BA  24219.10534775 -.00002390  00000-0 -13222-3 0  9991,2 53034  53.2173 160.5115 0001543 110.4539 249.6619 15.08807936115936,6917.978,95.44,540.911,538.776,0.0
53034.0,STARLINK-4151,PAYLOAD,2024-08-06 05:42:27,15.08818197,0.0001611,53.2165,159.9156,119.3114,240.8039,-0.00016716,-2.946e-05,0.0,0 STARLINK-4151,1 53034U 22076BA  24219.23782323 -.00002946  00000-0 -16716-3 0  9997,2 53034  53.2165 159.9156 0001611 119.3114 240.8039 15.08818197115959,6917.947,95.439,540.927,538.698,0.0
